Position,Name,Capacity (MW),Operational Units,Region,Country,Coordinates,Latitude,Longitude,Status,Construction ,Commission,Est. Project Cost,Developer,Operator,Owner,Turbine Manufacturer ,Notes,Contact,Position2,,,,,,,,,,,,,,,,,,,,,,,,,,,,,,,,,,,,,,,,,,,,,,,,
1,Dogger Bank Creyke Beck A & B,2400,400,"Yorkshire, North Sea, England",UK,54°43′28.63″N 2°46′06.80″E,54.7246194,2.7685556,Planned/Under Construction,2015,2020,,Forewind Limited ,Forewind Limited ,"SSE, Statkraft, Statoil, RWE",,,,,,,,,,,,,,,,,,,,,,,,,,,,,,,,,,,,,,,,,,,,,,,,,,,,
2,Dogger Bank Teesside A & B,2400,400,"Yorkshire, North Sea, England",UK,54°45′N 1°55′E,54.75,1.9166667,Planned/Under Construction,2015,2020,,Forewind Limited ,Forewind Limited ,"SSE, Statkraft, Statoil, RWE",,,,,,,,,,,,,,,,,,,,,,,,,,,,,,,,,,,,,,,,,,,,,,,,,,,,
3,Hornsea Project 1,1200,240,"Yorkshire, North Sea, England",UK,"53°53'6""N, 1°47'28""W",53.883,1.921,Planned/Under Construction,2016,2020,,DONG Energy,SMart Wind ,DONG Energy,Siemens,,,,,,,,,,,,,,,,,,,,,,,,,,,,,,,,,,,,,,,,,,,,,,,,,,,
4,"Moray Firth Eastern Development Area (Telford, Stevenson, Maccoll)",1116,186,Scotland,UK,,58.188,-2.720,Planned/Under Construction,2016,N/A,£1.8bn,Stevenson Offshore Windfarm Ltd,,EDP Renováveis; Repsol,Vestas,,,,,,,,,,,,,,,,,,,,,,,,,,,,,,,,,,,,,,,,,,,,,,,,,,,
5,Seagreen Alpha + Bravo,1050,150,Firth of Forth Zone,UK,,56.611,-1.821,Planned/Under Construction,,N/A,,Seagreen Alpha Wind Energy Ltd,,Fluor Ltd; SSE Renewables,,Total zone planned capacity 3.6GW,,,,,,,,,,,,,,,,,,,,,,,,,,,,,,,,,,,,,,,,,,,,,,,,,,
6,Codling Bank,1000,220,Codling Bank,Ireland,53°6′14″N 5°47′2″W,53.1038889,-5.7838889,Planned/Under Construction,,N/A,€3bn,Codling Wind Park Ltd,,Hazel Shore Ltd; Fred Olsen Renewables,Vestas,,,,,,,,,,,,,,,,,,,,,,,,,,,,,,,,,,,,,,,,,,,,,,,,,,,
7,Triton Knoll,900,,Lincolnshire,UK,53.4°N 0.9°E,53.479,0.837,Planned/Under Construction,N/A,N/A,£3.5bn,RWE Innogy; Statkraft,,RWE Innogy,N/A,,,,,,,,,,,,,,,,,,,,,,,,,,,,,,,,,,,,,,,,,,,,,,,,,,,
8,Stora Middelgrund,864,108,Båstad,Sweden,"56°36′0″N, 12° 7′ 12″E",56.596,12.117,Planned/Under Construction,,N/A,,Universal Wind AB,,Universal Wind AB,,,,,,,,,,,,,,,,,,,,,,,,,,,,,,,,,,,,,,,,,,,,,,,,,,,,
9,Inch Cape,784,110,,UK,,56.494,-2.195,Planned/Under Construction,,N/A,£3bn,Inch Cape Offshore WFL,,SDIC Power,,,,,,,,,,,,,,,,,,,,,,,,,,,,,,,,,,,,,,,,,,,,,,,,,,,,
10,East Anglia ONE,714,102,"East Anglia, North Sea, England",UK,52°54′28″N 2°37′43″E,52.9077778,2.6286111,Planned/Under Construction,2017,2020,,ScottishPower Renewables; Vattenfall,,ScottishPower Renewables; Vattenfall,Siemens,,,,,,,,,,,,,,,,,,,,,,,,,,,,,,,,,,,,,,,,,,,,,,,,,,,
11,Kaikas,664,83,,Germany,,54.604,6.173,Planned/Under Construction,2017,N/A,,WPD Offshore,,WPD Offshore,,,,,,,,,,,,,,,,,,,,,,,,,,,,,,,,,,,,,,,,,,,,,,,,,,,,
12,Walney Extension,660,87,"Cumbria, Irish Sea",UK,"54°5'13""N, 3°44'13""W",54.0869444,-3.7369444,Planned/Under Construction,,2018,,DONG Energy,,DONG Energy,Vestas; Siemens,,,,,,,,,,,,,,,,,,,,,,,,,,,,,,,,,,,,,,,,,,,,,,,,,,,
13,London Array,630,175,Thames Estuary,UK,51.626°N 1.495°E,51.626,1.495,Operational,2011,2013,£1.8bn,"E.ON Climate & Renewables; DONG Energy; Masdar, La Caisse de depot et placement du Quebec",E.ON Climate & Renewables; DONG Energy,"E.ON Climate & Renewables; DONG Energy; Masdar, La Caisse de depot et placement du Quebec",Siemens,,,,,,,,,,,,,,,,,,,,,,,,,,,,,,,,,,,,,,,,,,,,,,,,,,,
14,Gemini Wind Power Project,600,150,North Sea,Netherlands,54°11′N 5°53′E,54.0869444,-3.7369444,Planned/Under Construction,2015,2017,€2.8bn,Northland Power; Siemens Wind Power; Van Oord; HVC,,,Siemens,,,,,,,,,,,,,,,,,,,,,,,,,,,,,,,,,,,,,,,,,,,,,,,,,,,
15,Kriegers Flak Offshore Wind Farm,600,,"Kriegers Flak, Baltic Sea",Denmark,,55.026,12.939,Planned/Under Construction,2016,2021,€515m,Danish Energy Agency,,,,,,,,,,,,,,,,,,,,,,,,,,,,,,,,,,,,,,,,,,,,,,,,,,,,,,
16,Beatrice Offshore Wind Farm,588,84,"Outer Moray Firth, Scotland",UK,"58°5'53""N, 3°4'41""W",58.0980556,-3.0780556,Planned/Under Construction,2017,2019,€3.26bn,SSE; Copenhagen Infrastructure Partners; SDIC Power,Beatrice Offshore Wind Farm Ltd,SSE; Copenhagen Infrastructure Partners; SDIC Power,Siemens,,,,,,,,,,,,,,,,,,,,,,,,,,,,,,,,,,,,,,,,,,,,,,,,,,,
17,Gode Wind I+II,582,,North Sea,Germany,54°04′N 7°02′E,54.0666667,7.0333333,Planned/Under Construction,,2016,€2.2bn,,,,Siemens,,,,,,,,,,,,,,,,,,,,,,,,,,,,,,,,,,,,,,,,,,,,,,,,,,,
18,Gwynt Y Mor,576,160,North Wales,UK,53°27′N 03°35′W,53.45,-3.5833333,Operational,2012,2015,€2bn,Gwynt y Môr Offshore Wind Farm Limited (RWE),Gwynt y Môr Offshore Wind Farm Limited ,RWE; Stadtwerke München; UK Green Investment Bank; Siemens,Siemens,,,,,,,,,,,,,,,,,,,,,,,,,,,,,,,,,,,,,,,,,,,,,,,,,,,
19,Race Bank,573,91,North Norfolk,UK,53°16′30″N 0°50′30″E,53.275,0.8416667,Planned/Under Construction,2015,2018,£1.7bn,DONG Energy,,DONG Energy,Siemens,,,,,,,,,,,,,,,,,,,,,,,,,,,,,,,,,,,,,,,,,,,,,,,,,,,
20,OWP Albatros,550,79,North Sea,Germany,"54°30'0""N, 6°24'0""W",54.515,6.279,Planned/Under Construction,,N/A,,EnBW Albatros GmbH,,EnBW,,,,,,,,,,,,,,,,,,,,,,,,,,,,,,,,,,,,,,,,,,,,,,,,,,,,
21,Greater Gabbard Wind Farm,504,140,Suffolk,UK,51°52′48″N 1°56′24″E,51.88,1.94,Operational,,2012,£1.5bn,Greater Gabbard Offshore Winds Ltd,Greater Gabbard Offshore Winds Ltd,SSE; RWE Innogy,Siemens,,,,,,,,,,,,,,,,,,,,,,,,,,,,,,,,,,,,,,,,,,,,,,,,,,,
22,Fécamp,500,83,,France,,49.892,0.227,Planned/Under Construction,2017,N/A,,WPD Offshore,,WPD Offshore,,,,,,,,,,,,,,,,,,,,,,,,,,,,,,,,,,,,,,,,,,,,,,,,,,,,
23,Arklow Bank 2,500,173,"Arklow, Irish Sea",Ireland,52.789°N 5.949°W,52.789,-5.949,Planned/Under Construction,,N/A,€2bn,SSE Renewables; GE Energy; Acciona Energía,,SSE Renewables; GE Energy,GE,,,,,,,,,,,,,,,,,,,,,,,,,,,,,,,,,,,,,,,,,,,,,,,,,,,
24,Cape Wind Project,468,130,"Nantucket Sound, MA",USA,41°30′6″N 70°19′6″E,41.500,-70.331,Planned/Under Construction,2014,2016,$2.6bn,Energy Management Inc.,Cape Wind Associates LLC,Energy Management Inc.,Siemens,,,,,,,,,,,,,,,,,,,,,,,,,,,,,,,,,,,,,,,,,,,,,,,,,,,
25,Neart Na Gaoithe Offshore Wind Farm,448,75,"Forth Estuary, North Sea, Scotland",UK,56°16′04″N 2°19′15″W,56.2677778,-2.3208333,Planned/Under Construction,2015,2018,£1.5bn,Mainstream Renewable Power,,Mainstream Renewable Power,Siemens,,,,,,,,,,,,,,,,,,,,,,,,,,,,,,,,,,,,,,,,,,,,,,,,,,,
26,Storgrundet,420,70,,Sweden,,61.145,17.464,Planned/Under Construction,2018,N/A,,WPD Offshore,,WPD Offshore,,,,,,,,,,,,,,,,,,,,,,,,,,,,,,,,,,,,,,,,,,,,,,,,,,,,
27,Dudgeon Offshore Wind Farm,402,67,"North Norfolk, North Sea, England",UK,53.249°N 1.39°E,53.249,1.39,Planned/Under Construction,2015,2017,£1.5bn,Dudgeon Offshore Wind Ltd (Statoil; Statkraft; Masdar),Dudgeon Offshore Wind Ltd (Statoil; Statkraft; Masdar),Statoil; Masdar; Statkraft,Siemens,,,,,,,,,,,,,,,,,,,,,,,,,,,,,,,,,,,,,,,,,,,,,,,,,,,
28,Veja Mate,402,67,"Eemshaven, North Sea",Germany,"54°19'1""N, 5°52'15""E",54.318,5.872,Planned/Under Construction,2016,2018,€1.9bn,,Veja Mate Offshore Project GmbH,,Siemens,,,,,,,,,,,,,,,,,,,,,,,,,,,,,,,,,,,,,,,,,,,,,,,,,,,
29,Anholt,400,111,Nørre Djurs,Denmark,56°36′00″N 11°12′36″E,56.598,11.208,Operational,,2013,€1.3bn,DONG Energy,DONG Energy,PKA A/S; PensionDanmark; DONG Energy,Siemens,,,,,,,,,,,,,,,,,,,,,,,,,,,,,,,,,,,,,,,,,,,,,,,,,,,
30,Global Tech 1 ,400,80,North Sea,Germany,54°30′00″N 6°21′30″E,54.5,6.3583333,Operational,2012,2014,€1.8bn,Global Tech 1 Offshore Wind GmbH,Global Tech 1 Offshore Wind GmbH,Stadtwerke München GmbH; ENTEGA AG; Axpo International S.A.; Esportes Offshore Beteiligungs GmbH,GE,,,,,,,,,,,,,,,,,,,,,,,,,,,,,,,,,,,,,,,,,,,,,,,,,,,
31,Trianel Windpark Borkum I+II,400,80,North Sea,Germany,54°02′30″N 6°28′0″E,54.0416667,6.4666667,Operational,2011,2015,€1.6bn,Trianel Windkraftwerk Borkum,Trianel Windkraftwerk Borkum,Trianel GmbH; EWE AG,Areva,,,,,,,,,,,,,,,,,,,,,,,,,,,,,,,,,,,,,,,,,,,,,,,,,,,
32,Bard Offshore 1,400,80,North Sea,Germany,54.36°N 5.98°E,54.36,5.98,Operational,2010,2013,€2.9bn,Bard Engineering GmbH,Offshore Wind Solutions GmbH,SudWestStorm Windpark; Ocean Breeze Energy GmbH & Co. KG,BARD,,,,,,,,,,,,,,,,,,,,,,,,,,,,,,,,,,,,,,,,,,,,,,,,,,,
33,Horns Rev 3,400,49,"Kriegers Flak, Baltic Sea",Denmark,"55°42'7""N, 7°41'20""E",55.7019444,7.6888889,Planned/Under Construction,2016,2017,,Vattenfall,Vattenfall,Vattenfall,Vestas,,,,,,,,,,,,,,,,,,,,,,,,,,,,,,,,,,,,,,,,,,,,,,,,,,,
34,SPIC Binhai North H2,400,100,"Binhai, Jiangsu Province",China,,34.403,120.195,Planned/Under Construction,,N/A,,State Power Investment Corporation (SPIC),,State Power Investment Corporation (SPIC),,,,,,,,,,,,,,,,,,,,,,,,,,,,,,,,,,,,,,,,,,,,,,,,,,,,
35,Rampion,400,112,"Sussex, England",UK,50°40′0″N 0°6′0″W,50.668,-0.275,Planned/Under Construction,,2018,€1.9bn,E.ON Climate & Renewables,E.ON Climate & Renewables,E.ON Climate & Renewables; Enbridge Inc.; UK Green Investment Bank,Vestas,,,,,,,,,,,,,,,,,,,,,,,,,,,,,,,,,,,,,,,,,,,,,,,,,,,
36,MEG Offshore I,400,80,North Sea,Germany,"54°2'0""N, 6°33'0""W",54.0333333,6.55,Planned/Under Construction,2016,N/A,€1.9bn,Mercur Offshore,,Windreich AG; DEME Concessions NV,GE,,,,,,,,,,,,,,,,,,,,,,,,,,,,,,,,,,,,,,,,,,,,,,,,,,,
37,West of Duddon Sands Wind Farm,389,108,"Cumbria, Irish Sea",UK,53.983°N 3.463°W,53.983,-3.463,Operational,2013,2014,£1.6bn,"West of Duddon Sands (Iberdrola, DONG)",DONG Energy,ScottishPower Renewables (Iberdrola Renovables Energia); DONG Energy,Siemens,,,,,,,,,,,,,,,,,,,,,,,,,,,,,,,,,,,,,,,,,,,,,,,,,,,
38,Arkona Becken Südost,385,60,Baltic Sea,Germany,,54.782,14.121,Planned/Under Construction,2016,2019,,E.ON Climate & Renewables; Statoil,,E.ON Climate & Renewables; Statoil,Siemens,,,,,,,,,,,,,,,,,,,,,,,,,,,,,,,,,,,,,,,,,,,,,,,,,,,
39,Norther Wind Farm,370,45,Vlaanderen,Belgium,"51°35′28″N, 2°56′38″E",51.527,3.014,Planned/Under Construction,2017,2018,€1.5bn,SA Norther; Eneco; Elicio,,Eneco; Elicio,,,,,,,,,,,,,,,,,,,,,,,,,,,,,,,,,,,,,,,,,,,,,,,,,,,,
40,Walney 1 + 2,367,102,"Cumbria, Irish Sea",UK,54.044°N 3.522°W,54.041,-3.514,Operational,2010,2012,£1.2bn,Walney Offshore Windfarms Ltd,Walney Offshore Windfarms Ltd,SSE; DONG Energy; Ampere Equity Fund; PGGM,Siemens,,,,,,,,,,,,,,,,,,,,,,,,,,,,,,,,,,,,,,,,,,,,,,,,,,,
41,Wikinger Offshore Wind Farm,350,70,Baltic Sea,Germany,,54.834,14.068,Planned/Under Construction,2016,2017,€1.4bn,Iberdrola Renovables Deutschland GmbH,ScottishPower Renewables,"ScottishPower Renewables (Iberdrola Renovables Energia, SA)",,,,,,,,,,,,,,,,,,,,,,,,,,,,,,,,,,,,,,,,,,,,,,,,,,,,
42,Arcadis Ost,348,58,Baltic Sea,Germany,"54°48'0 ""N, 13°41'0""E",54.832,13.643,Planned/Under Construction,,2018,€1.4bn,KNK Wind GmbH,,Stadtwerke Bad Vilbel GmbH; KNK Ocean Breeze GmbH; WV Energie AG; iKB Innsbrucker Kommunalbetriebe,GE,,,,,,,,,,,,,,,,,,,,,,,,,,,,,,,,,,,,,,,,,,,,,,,,,,,
43,Borkum Riffgrund II,346,96,North Sea,Germany,"53° 58′ 0″ N, 6° 33′ 0″E",53.956,6.496,Planned/Under Construction,2016,2019,€1.3bn,DONG Energy,,DONG Energy,Vestas,,,,,,,,,,,,,,,,,,,,,,,,,,,,,,,,,,,,,,,,,,,,,,,,,,,
44,Galloper Wind Farm,336,56,Suffolk,UK,51°52′48″N 1°56′24″E,51.892,2.034,Planned/Under Construction,2015,2018,£1.5bn,RWE Innogy; UK Green Investment Bank; Siemens Financial Services; Macquarie Capital,,RWE Innogy; UK Green Investment Bank; Siemens Financial Services; Macquarie Capital,Siemens,,,,,,,,,,,,,,,,,,,,,,,,,,,,,,,,,,,,,,,,,,,,,,,,,,,
45,Nordsee One,332,54,North Sea,Germany,53.979°N 6.814°E,53.979,6.814,Planned/Under Construction,2015,2017,€1.2bn,RWE Innogy; Northland Power Inc.,,RWE Innogy; Northland Power Inc.,REpower,,,,,,,,,,,,,,,,,,,,,,,,,,,,,,,,,,,,,,,,,,,,,,,,,,,
46,Oriel Wind Farm,330,55,"Dundalk, Irish Sea",Ireland,53.918°N 6.068°W,53.918,-6.064,Planned/Under Construction,,2017,€950m,Oriel Windfarm Ltd,Oriel Windfarm Ltd,Oriel Windfarm Ltd,,,,,,,,,,,,,,,,,,,,,,,,,,,,,,,,,,,,,,,,,,,,,,,,,,,,
47,OWP West,328,45,North Sea,Germany,,54.030,6.159,Planned/Under Construction,,N/A,,Northern Energy OWP West Gmbh,Northern Energy OWP West Gmbh,DONG Energy,,,,,,,,,,,,,,,,,,,,,,,,,,,,,,,,,,,,,,,,,,,,,,,,,,,,
48,Thornton Bank Wind Farm,325,54,Vlaanderen,Belgium,51.54548°N 2.92978°E,51.54548,2.92978,Operational,,2013,€1.3bn,C-Power,C-Power,EDF Energy Renewables; DEME NV; Societe Regionale d'Investissement de Wallonie; Socofe; Nuhma; RWE Innogy; Marguerite Fund,REpower,,,,,,,,,,,,,,,,,,,,,,,,,,,,,,,,,,,,,,,,,,,,,,,,,,,
49,Sheringham Shoal Wind Farm,317,88,North Norfolk,UK,53.135°N 1.147°E,53.135,1.147,Operational,2009,2012,€1.7bn,"Scira Offshore Energy Ltd  (Statoil, UK Green Investment Bank, Statkraft)","Scira Offshore Energy Ltd  (Statoil, UK Green Investment Bank, Statkraft)","Scira Offshore Energy Ltd  (Statoil, UK Green Investment Bank, Statkraft)",Siemens,,,,,,,,,,,,,,,,,,,,,,,,,,,,,,,,,,,,,,,,,,,,,,,,,,,
50,Borkum Riffgrund I,312,77,North Sea,Germany,"53° 58′ 0″ N, 6° 33′ 0″E",53.967,6.554,Operational,2013,2015,€1.25bn,DONG Energy,DONG Energy; Kirkbi A/S & William Demant Holding A/S,DONG Energy; Kirkbi A/S & William Demant Holding A/S,Siemens,,,,,,,,,,,,,,,,,,,,,,,,,,,,,,,,,,,,,,,,,,,,,,,,,,,
51,Rentel Wind Farm,309,42,North Sea,Belgium,"51°35′28″N, 2°56′38″E",51.591,2.944,Planned/Under Construction,2017,2018,€1.25bn,Rentel NV,,Electrawinds Offshore NV; Rent-A-Port Energy n.v.; Otary RS NV; Aspiravi Offshore NV; Power@Sea; DEME NV; SRIW Environment; Socofe; Z-kracht,Siemens,,,,,,,,,,,,,,,,,,,,,,,,,,,,,,,,,,,,,,,,,,,,,,,,,,,
52,Thanet Wind Farm,300,100,"Thanet, Kent",UK,51.4306°N 1.6331°E,51.4306,1.6331,Operational,,2010,£900m,Vattenfall, Thanet Offshore Wind Ltd,Vattenfall,Vestas,,,,,,,,,,,,,,,,,,,,,,,,,,,,,,,,,,,,,,,,,,,,,,,,,,,
53,Taggen Vindpark,300,60,Kristianstad,Sweden,,55.862,14.566,Planned/Under Construction,2017,2019,,Taggen Vindpark AB,Taggen Windpark AB,Vattenfall; Hanöbukten Offshore AB,,,,,,,,,,,,,,,,,,,,,,,,,,,,,,,,,,,,,,,,,,,,,,,,,,,,
54,Nordsee-Ost ,295,48,North Sea,Germany,54°26′24″N 7°40′48″E,54.444,7.682,Operational,,2015,€1.3bn,RWE Innogy,RWE Innogy,RWE Innogy,REpower,,,,,,,,,,,,,,,,,,,,,,,,,,,,,,,,,,,,,,,,,,,,,,,,,,,
55,Amrumbank West,288,80,North Sea,Germany,54°30′N 7°48′E,54.523,7.705,Operational,2013,2015,€1bn,E.ON Climate & Renewables,E.ON Climate & Renewables,E.ON Climate & Renewables,Siemens,,,,,,,,,,,,,,,,,,,,,,,,,,,,,,,,,,,,,,,,,,,,,,,,,,,
56,Butendiek,288,80,North Sea,Germany,54°54′0″N 07°45′00″E,55.019,7.774,Operational,2014,2015,€1.3bn,wpd Offshore GmbH,OWP Butendiek GmbH & Co KG,Siemenst Financial Services; Marguerite Fund; Industriens Pension; PKA A/S; wpd; CDC Infrastructure; ewz,Siemens,,,,,,,,,,,,,,,,,,,,,,,,,,,,,,,,,,,,,,,,,,,,,,,,,,,
57,DanTysk,288,80,North Sea,Germany,5°8′24″N 7°12′0″E,55.137,7.200,Operational,2012,2015,€1bn,Vattenfall; Stadtwerke München,DanTysk Offshore Wind GmbH,Vattenfall; Stadtwerke München,Siemens,,,,,,,,,,,,,,,,,,,,,,,,,,,,,,,,,,,,,,,,,,,,,,,,,,,
58,Baltic 2,288,80,Stralsund,Germany,54°58′24″N 13°10′40″E,54.982,13.162,Operational,,2015,€1.25bn,EnBW,EnBW,EnBW; Macquarie Capital,Siemens,,,,,,,,,,,,,,,,,,,,,,,,,,,,,,,,,,,,,,,,,,,,,,,,,,,
59,Meerwind Süd/Ost,288,80,North Sea,Germany,54°23′00″N 7°42′00″E,54.392,7.704,Operational,2012,2014,€1.2bn,"Meerwind Südwest GmbH (WindMW, Blackstone)",Meerwind Südwest GmbH,Blackstone; Windland Energieerzeugungs,Siemens,,,,,,,,,,,,,,,,,,,,,,,,,,,,,,,,,,,,,,,,,,,,,,,,,,,
60,Sandbank,288,72,,Germany,"55°11'0""N, 6°51'0""E",55.199,6.852,Planned/Under Construction,,2017,,Vattenfall; Stadtwerke München,,Vattenfall; Stadtwerke München,Siemens,,,,,,,,,,,,,,,,,,,,,,,,,,,,,,,,,,,,,,,,,,,,,,,,,,,
61,Kattegat,282,50,Falkenberg,Sweden,,56.828,12.343,Operational,,2013,,Favonius AB; Göteborg Energi AB,,Vattenfall,,,,,,,,,,,,,,,,,,,,,,,,,,,,,,,,,,,,,,,,,,,,,,,,,,,,
62,Lincs Offshore Wind Farm,270,75,North Sea,UK,53°11′N 00°29′E,53.191,0.491,Operational,2010,2013,£725m,RES,Centrica Renewable Energy,"Centrica Renewable Energy, Siemens Project Ventures, DONG Energy",Siemens,,,,,,,,,,,,,,,,,,,,,,,,,,,,,,,,,,,,,,,,,,,,,,,,,,,
63,Borkum Riffgrund West I,270,45,North Sea,Germany,,54.047,6.234,Planned/Under Construction,,N/A,€1.6bn,DONG Energy,,DONG Energy,,,,,,,,,,,,,,,,,,,,,,,,,,,,,,,,,,,,,,,,,,,,,,,,,,,,
64,Borkum Riffgrund West II,265,43,North Sea,Germany,,54.057,6.148,Planned/Under Construction,,N/A,,DONG Energy,,DONG Energy,Repower,,,,,,,,,,,,,,,,,,,,,,,,,,,,,,,,,,,,,,,,,,,,,,,,,,,
65,Burbo Bank Extension,254,32,"Liverpool Bay, Wales",UK,53°29′N 03°10′W,53.483,-3.273,Planned/Under Construction,2014,2017,£800m,DONG Energy,SeaScape Energy ltd (DONG Energy),DONG Energy; Kirkbi A/S; PKA A/S,Siemens,,,,,,,,,,,,,,,,,,,,,,,,,,,,,,,,,,,,,,,,,,,,,,,,,,,
66,Deutsche Bucht,252,42,,Germany,,54.305,5.799,Planned/Under Construction,,2019,,K2 Management,,Highland Group Holding Limited,,,,,,,,,,,,,,,,,,,,,,,,,,,,,,,,,,,,,,,,,,,,,,,,,,,,
67,Longyuan Rudong Intertidal,150,28,"Nantong, Jiangsu Province",China,,32.555,121.233,Operational,2011,2012,¥790m,"Jiangsu Longyuan Offshore Wind Power Co., Ltd","Jiangsu Longyuan Offshore Wind Power Co., Ltd",China Longyuan Power Group Corporation Limited,Siemens; Sinovel; various,,,,,,,,,,,,,,,,,,,,,,,,,,,,,,,,,,,,,,,,,,,,,,,,,,,
68,Humber Gateway,219,73,North Sea,UK,53°38′38″N 0°17′35″E,53.644,0.293,Operational,2013,2015,£736m,E.ON Climate & Renewables,Humber Wind Ltd,E.ON Climate & Renewables,Vestas,,,,,,,,,,,,,,,,,,,,,,,,,,,,,,,,,,,,,,,,,,,,,,,,,,,
69,Northwind,216,72,Vlaanderen,Belgium,51°37′08″N 02°54′03″E,51.619,2.900,Operational,,2014,€850m,Northwind NV,Parkwind NV,Parkwind; Aspiravi Holding NV; Sumitomo Corporation,Vestas,,,,,,,,,,,,,,,,,,,,,,,,,,,,,,,,,,,,,,,,,,,,,,,,,,,
70,Kaskasi,210,34,,,,54.437,7.779,Planned/Under Construction,2018,N/A,,RWE Innogy,,RWE Innogy,,,,,,,,,,,,,,,,,,,,,,,,,,,,,,,,,,,,,,,,,,,,,,,,,,,,
71,Westermost Rough,210,35,"North Sea, England",UK,53°48′0″N 0°9′0″E,53.805,0.149,Operational,2014,2015,£850m,DONG Energy,DONG Energy,DONG Energy; Green Investment Bank; Marubeni Corporation,Siemens,,,,,,,,,,,,,,,,,,,,,,,,,,,,,,,,,,,,,,,,,,,,,,,,,,,
72,Delta Nordsee 1,210,35,North Sea,Germany,"54° 2′ 0″ N, 6° 45′ 30″ W",54.037,6.765,Planned/Under Construction,,N/A,,OWP Delta Nordsee GmbH,OWP Delta Nordsee GmbH,E.ON Climate & Renewables,,,,,,,,,,,,,,,,,,,,,,,,,,,,,,,,,,,,,,,,,,,,,,,,,,,,
73,Horns Rev 2,209.3,91,North Sea,Denmark,55°36′00″N 7°35′24″E,55.600,7.582,Operational,,2009,€450m,DONG Energy,DONG Energy,DONG Energy,Siemens,,,,,,,,,,,,,,,,,,,,,,,,,,,,,,,,,,,,,,,,,,,,,,,,,,,
74,Rodsand II,207,90,Lolland,Denmark,54°33′0″N 11°42′36″E,54.555,11.548,Operational,,2010,€300m,E.ON Climate & Renewables,E.ON Climate & Renewables,E.ON Climate & Renewables; SEAS-NVE Energy Group,Siemens,,,,,,,,,,,,,,,,,,,,,,,,,,,,,,,,,,,,,,,,,,,,,,,,,,,
75,Jiangsu Rudong Offshore Wind Farm,202,,"Jiangsu, Nantong",China,,32.556,121.146,Planned/Under Construction,,2016,,,,,,,,,,,,,,,,,,,,,,,,,,,,,,,,,,,,,,,,,,,,,,,,,,,,,,,,
76,Hong Kong Offshore Wind Farm,201,,,Hong Kong,,22.274,114.415,Planned/Under Construction,,2017,,,,,,,,,,,,,,,,,,,,,,,,,,,,,,,,,,,,,,,,,,,,,,,,,,,,,,,,
77,Rudong Offshore Demo Project,200,50,"Nantong, Jiangsu Province",China,"32°31'12""N, 121°13'41""E",32.520,121.288,Operational,,2015,¥2.9bn,"Jiangsu Longyuan Offshore Wind Power Co., Ltd","Jiangsu Longyuan Offshore Wind Power Co., Ltd",China Longyuan Power Group Corporation Limited,Siemens; Envision,,,,,,,,,,,,,,,,,,,,,,,,,,,,,,,,,,,,,,,,,,,,,,,,,,,
78,Lynn & Inner Dowsing Offshore Farms,194,54,Lincolnshire,UK,53°07′39″N 00°26′10″E,53.164,0.452,Operational,2006,2009,£300m,GLID Wind Farms Topco Ltd,Centrica Renewable Energy,Blackrock Investment Management; UK Green Investment Bank,Siemens,,,,,,,,,,,,,,,,,,,,,,,,,,,,,,,,,,,,,,,,,,,,,,,,,,,
79,Delta Nordsee 2,192,32,North Sea,Germany,,54.040,6.779,Planned/Under Construction,,N/A,,OWP Delta Nordsee GmbH,OWP Delta Nordsee GmbH,E.ON Climate & Renewables,,,,,,,,,,,,,,,,,,,,,,,,,,,,,,,,,,,,,,,,,,,,,,,,,,,,
80,Robin Rigg,180,60,"Solway Firth, Scotland",UK,54°45′00″N 3°43′00″W,54.756,-3.710,Operational,,2010,£380m,E.ON Climate & Renewables,E.ON Climate & Renewables,E.ON Climate & Renewables,Vestas,,,,,,,,,,,,,,,,,,,,,,,,,,,,,,,,,,,,,,,,,,,,,,,,,,,
81,Gunfleet Sands Wind Farm,172,48,"Clacton-on-Sea, Essex",UK,51°43′0″N 01°12′50″E,51.730,1.229,Operational,2008,2010,€525m,Gunfleet Sands Ltd (DONG Energy),Gunfleet Sands Ltd (DONG Energy),DONG Energy; Marubeni Corporation; Development Bank of Japan,Siemens,,,,,,,,,,,,,,,,,,,,,,,,,,,,,,,,,,,,,,,,,,,,,,,,,,,
82,Rodsand I / Nysted,166,72,Lolland,Denmark,54°33′36″N 11°33′0″E,54.549,11.714,Operational,,2003,€300m,DONG Energy,Energi E2 (DONG Energy),DONG Energy; PensionDanmark; Stadtwerke Lübeck,Siemens,,,,,,,,,,,,,,,,,,,,,,,,,,,,,,,,,,,,,,,,,,,,,,,,,,,
83,Belwind I,165,55,Bligh Bank,Belgium,51°39′36″N 02°48′0″E,51.670,2.802,Operational,2009,2010,€614m,Belwind NV,Belwind NV,Parkwind NV; Meewind; Sumitomo Corporation,Vestas,,,,,,,,,,,,,,,,,,,,,,,,,,,,,,,,,,,,,,,,,,,,,,,,,,,
84,Nobelwind,165,55,Vlaanderen,Belgium,"51°31'37""N, 3°0'50""W",51.664,2.816,Planned/Under Construction,2016,2017,€655m,Nobelwind Offshore Energy,,Parkwind; Meewind; Sumitomo Corporation,Vestas,,,,,,,,,,,,,,,,,,,,,,,,,,,,,,,,,,,,,,,,,,,,,,,,,,,
85,Horns Rev 1,160,80,North Sea,Denmark,55°31′47″N 7°54′22″E,55.486,7.840,Operational,,2002,€272m,DONG Energy; Vattenfall,Vattenfall,DONG Energy; Vattenfall,Vestas,,,,,,,,,,,,,,,,,,,,,,,,,,,,,,,,,,,,,,,,,,,,,,,,,,,
86,Adlergrund Nordkap,155,31,Baltic Sea,Germany,,54.849,14.062,Planned/Under Construction,,N/A,,BEC- Energie Consult GmbH,,BEC- Energie Consult GmbH,,,,,,,,,,,,,,,,,,,,,,,,,,,,,,,,,,,,,,,,,,,,,,,,,,,,
87,Ormonde Wind Farm,150,30,"Cumbria, Irish Sea",UK,54°6′N 3°24′W,54.088,-3.437,Operational,2010,2012,€552m,Vattenfall,Ormonde Energy Limited (Vattenfall),Vattenfall; AMF Pensionsförskäkring AB,Repower,,,,,,,,,,,,,,,,,,,,,,,,,,,,,,,,,,,,,,,,,,,,,,,,,,,
88,Jiangsu Rudong ,150,58,"Rudong County, Jiangsu Province",China,30°30′14″N 121°15′36″E,32.532,121.196,Operational,2011,2012,¥700m,China Longyuan Power Group,Jiangsu Offshore Wind Power,China Longyuan Power Group (China Guodian),Siemens; Sinovel; Goldwind,,,,,,,,,,,,,,,,,,,,,,,,,,,,,,,,,,,,,,,,,,,,,,,,,,,
89,Trolleboda,150,30,Karlskrona,Sweden,,56.298,16.176,Planned/Under Construction,,N/A,,Vattenfall,,Vattenfall,,,,,,,,,,,,,,,,,,,,,,,,,,,,,,,,,,,,,,,,,,,,,,,,,,,,
90,Bac Lieu Extension,142,71,Bac Lieu,Vietnam,,9.219,105.792,Planned/Under Construction,2016,2018,$400m,"Cong Ly Construction-Trading-Toursim Co., Ltd.","Cong Ly Construction-Trading-Toursim Co., Ltd.","Cong Ly Construction-Trading-Toursim Co., Ltd.",GE,,,,,,,,,,,,,,,,,,,,,,,,,,,,,,,,,,,,,,,,,,,,,,,,,,,
91,Kentish Flats (incl. Extension),140,45,"Herne Bay, Kent, England",UK,51°27′36″N 1°5′24″E,51.460,1.093,Operational,,2005,£105m,NEG Micon,Kentish Flats Ltd,Vattenfall,Vestas,,,,,,,,,,,,,,,,,,,,,,,,,,,,,,,,,,,,,,,,,,,,,,,,,,,
92,Luchterduinen,129,43,Noordwijk,Netherlands,52°24′18″N 4°09′43″E,52.405,4.162,Operational,2013,2015,€450m,Eneco; Mitsubishi,Eneco; Mitsubishi,Eneco; Mitsubishi,Vestas,,,,,,,,,,,,,,,,,,,,,,,,,,,,,,,,,,,,,,,,,,,,,,,,,,,
93,Kashima Port North,125,24,Ibaraki,Japan,35°54′43″N 140°43′26″E,35.916,140.727,Operational,,,€465m,"Wind Power Energy Co., Ltd","Wind Power Energy Co., Ltd",Wind Power Group (Komatsuzaki); SB Energy Corporation; ORIX Corporation,Hitachi,,,,,,,,,,,,,,,,,,,,,,,,,,,,,,,,,,,,,,,,,,,,,,,,,,,
94,Princess Amalia,120,60,Egmond aan Zee,Netherlands,52°59′N 4°22′E,52.588,4.223,Operational,,2008,€383m,Eneco,Offshore Windpark Q7,Eneco,Vestas,,,,,,,,,,,,,,,,,,,,,,,,,,,,,,,,,,,,,,,,,,,,,,,,,,,
95,Lillgrund,110,48,Malmö,Sweden,55°30′39'' N 12°47′56''E,55.511,12.779,Operational,,2008,€190m,Vattenfall,Vattenfall,Vattenfall,Siemens,,,,,,,,,,,,,,,,,,,,,,,,,,,,,,,,,,,,,,,,,,,,,,,,,,,
96,Nordergründe,110,18,North Sea,Germany,"53°50'0""N, 8°10'0""W",53.834,8.169,Planned/Under Construction,2016,N/A,€410m,OWP Nordergründe GmbH & Co,,WPD Offshore GmbH; Gothaer Leben Renewables GmbH,Senvion,,,,,,,,,,,,,,,,,,,,,,,,,,,,,,,,,,,,,,,,,,,,,,,,,,,
97,Egmond aan Zee (OWEZ),108,36,Egmond aan Zee,Netherlands,52°36′21'' N 4°25′8''E,52.606,4.419,Operational,2006,2007,€200m,NordzeeWind (Nuon; Shell Wind Energy),NordzeeWind (Nuon (Vattenfall); Shell Wind Energy),Nuon; Shell Wind Energy,Vestas,,,,,,,,,,,,,,,,,,,,,,,,,,,,,,,,,,,,,,,,,,,,,,,,,,,
98,Riffgat,108,30,North Sea,Germany,53°41′24″N 6°28′48″E,53.692,6.475,Operational,2012,2014,€350m,EWE; Enova,EWE,EWE; Enova,Siemens,,,,,,,,,,,,,,,,,,,,,,,,,,,,,,,,,,,,,,,,,,,,,,,,,,,
99,Donghai Bridge,102,34,Shanghai,China,30°46′12″N 121°59′38″E,30.770,121.994,Operational,,2010,¥2.3bn,Shanghai Dong Hai Wind Power Generation Company Ltd,Shanghai Dong Hai Wind Power Generation Company Ltd,China Datang Corporation; Shanghai Green Energy Co. Ltd; China Guangdong Nuclear Power Group; China Power New Energy Development Company Ltd,Sinovel,,,,,,,,,,,,,,,,,,,,,,,,,,,,,,,,,,,,,,,,,,,,,,,,,,,
100,Bac Lieu Offshore Wind Farm,100,62,"Bac Lieum, South China Sea",Vietnam,"9°14'10""N, 105°49'23""W",9.224,105.809,Operational,2010,2015,€244m,"Cong Ly Construction-Trading-Toursim Co., Ltd.","Cong Ly Construction-Trading-Toursim Co., Ltd.","Cong Ly Construction-Trading-Toursim Co., Ltd.",GE,,,,,,,,,,,,,,,,,,,,,,,,,,,,,,,,,,,,,,,,,,,,,,,,,,,
101,SPIC Binhai North H1,100,25,"Binhai, Jiangsu Province",China,"34°24'11""N, 120°11'42""E",34.403,120.195,Planned/Under Construction,2016,2017,¥1.6bn,State Power Investment Corporation (SPIC),,State Power Investment Corporation (SPIC),Siemens,,,,,,,,,,,,,,,,,,,,,,,,,,,,,,,,,,,,,,,,,,,,,,,,,,,
102,Blyth Offshore Wind Demo Project,100,15,"Northumberland, England",UK,"55°9′58″N, 1°22′8″W",55.166,-1.369,Planned/Under Construction,,2017,£350m,EDF Energy Renewables,,EDF Energy Renewables,Vestas,,,,,,,,,,,,,,,,,,,,,,,,,,,,,,,,,,,,,,,,,,,,,,,,,,,
103,Burbo Offshore Wind Farm,90,25,"Liverpool Bay, Wales",UK,53°29′N 03°10′W,53.488,-3.187,Operational,2007,2007,£181m,DONG Energy,SeaScape Energy ltd (DONG Energy),DONG Energy,Siemens,,,,,,,,,,,,,,,,,,,,,,,,,,,,,,,,,,,,,,,,,,,,,,,,,,,
104,Rhyl Flats,90,25,North Wales,UK,53°22′N 03°39′W,53.378,-3.646,Operational,2007,2009,£190m,RWE Innogy,Rhyl  Flats Wind Farm Ltd,RWE Innogy; Greencoat UK Wind PLC; UK Green Investment Bank,Siemens,,,,,,,,,,,,,,,,,,,,,,,,,,,,,,,,,,,,,,,,,,,,,,,,,,,
105,Barrow Offshore Wind Farm,90,30,East Irish Sea,UK,53°59′00″N 3°17′00″W,53.991,-3.295,Operational,,2006,£123m,DONG Energy,Barrow Offshore Wind Limited,DONG Energy,Vestas,,,,,,,,,,,,,,,,,,,,,,,,,,,,,,,,,,,,,,,,,,,,,,,,,,,
106,Utgrunden II,86.4,24,Mörbylånga,Sweden,,56.375,16.272,Planned/Under Construction,,N/A,,E.ON Climate & Renewables,,E.ON Climate & Renewables,,,,,,,,,,,,,,,,,,,,,,,,,,,,,,,,,,,,,,,,,,,,,,,,,,,,
107,Aberdeen Offshore Wind Farm,84,11,"Aberdeen, Scotland",UK,,57.225,-1.993,Planned/Under Construction,2015,2018,£230m,Aberdeen Offshore Wind Farm Ltd,,Vattenfall; Technip; Aberdeen Renewable Energy Group,Vestas,,,,,,,,,,,,,,,,,,,,,,,,,,,,,,,,,,,,,,,,,,,,,,,,,,,
108,Teesside Wind Farm,62,27,"Redcar, England",UK,54.648°N 1.095°W,54.650,-1.096,Operational,2011,2013,,"Northern Offshore Wind, Ltd (EDF)",Teesside Windfarm Ltd,EDF Energy Renewables,Siemens,,,,,,,,,,,,,,,,,,,,,,,,,,,,,,,,,,,,,,,,,,,,,,,,,,,
109,Alpha Ventus Wind Park,60,12,North Sea,Germany,"54°0'30""N, 6°35'54""E",54.010,6.606,Operational,2007,2010,€250m,E.ON Climate & Renewables; EWE; Vattenfall Europe Windkraft,Deutsche Offshore-Testfeld und Infrastruktur (DOTI),E.ON Climate & Renewables; EWE; Vattenfall Europe Windkraft,Areva; REpower,,,,,,,,,,,,,,,,,,,,,,,,,,,,,,,,,,,,,,,,,,,,,,,,,,,
110,North Hoyle,60,30,"Liverpool Bay, Wales",UK,53°26′N 3°24′W,53.417,-3.448,Operational,,2003,£81m,RWE Innogy,RWE Innogy,RWE Innogy,Vestas,,,,,,,,,,,,,,,,,,,,,,,,,,,,,,,,,,,,,,,,,,,,,,,,,,,
111,Scroby Sands,60,30,"Great Yarmouth, Norfolk",UK,52°38′0″N 1°47′0″E,52.645,1.787,Operational,,2004,£75m,E.ON Climate & Renewables,E.ON Climate & Renewables,E.ON Climate & Renewables,Vestas,,,,,,,,,,,,,,,,,,,,,,,,,,,,,,,,,,,,,,,,,,,,,,,,,,,
112,Baltic 1 ,48,21,"Daras, Baltic Sea",Germany,"54°36'32""N, 12°39'4""W",54.609,12.651,Operational,2010,2011,€200m,EnBW Baltic 1 GmbH,EnBW Baltic 1 GmbH,EnBW; Multiple municipalities own minority stakes,Siemens,,,,,,,,,,,,,,,,,,,,,,,,,,,,,,,,,,,,,,,,,,,,,,,,,,,
113,Wave Hub,48,27,Cornwall,UK,50°18′40″N 5°31′30″W,50.363,-5.611,Operational,,2012,£28m,South West of England Regional Development Agency,Wave Hub Ltd,"Department for Business, Innovation and Skills",N/A,,,,,,,,,,,,,,,,,,,,,,,,,,,,,,,,,,,,,,,,,,,,,,,,,,,
114,Kårehamn,48,16,Borgholm,Sweden,56°58′48″N 17°01′12″E,56.984,17.022,Operational,,2013,€120m,E.ON Climate & Renewables,E.ON Climate & Renewables,E.ON Climate & Renewables,Vestas,,,,,,,,,,,,,,,,,,,,,,,,,,,,,,,,,,,,,,,,,,,,,,,,,,,
115,Middelgrunden,40,20,Middelgrunden,Denmark,55°41′27″N 12°40′13″E,55.689,12.668,Operational,2000,2000,$60m,DONG Energy,DONG Energy; Middelgrundens Vindmollelaug,DONG Energy; Middelgrundens Vindmollelaug,Bonus,,,,,,,,,,,,,,,,,,,,,,,,,,,,,,,,,,,,,,,,,,,,,,,,,,,
116,Block Island Wind Farm,30,5,"Block Island, RI",USA,41°06′52.96″N 71°31′16.18″W,41.115,-71.521,Planned/Under Construction,2015,2017,$290m,"Deepwater Wind, LLC","Deepwater Wind, LLC","Deepwater Wind, LLC",Alstom/GE,,,,,,,,,,,,,,,,,,,,,,,,,,,,,,,,,,,,,,,,,,,,,,,,,,,
117,Hywind Pilot Park,30,5,"Peterhead, Scotland",UK,"57°29'2""N, 1°21'43""W",57.484,-1.362,Planned/Under Construction,2016,2017,,Hywind Limited,,Statoil,Siemens,,,,,,,,,,,,,,,,,,,,,,,,,,,,,,,,,,,,,,,,,,,,,,,,,,,
118,Vindpark Vänern,30,10,Karlstad,Sweden,59°15′35″N 13°23′53″E,59.262,13.387,Operational,,2010,€58m,Vindpark Vänern,Vindpark Vänern,Kraft AB; Drift AB,Dynawind,,,,,,,,,,,,,,,,,,,,,,,,,,,,,,,,,,,,,,,,,,,,,,,,,,,
119,Kemin Ajoksen,30,10,Lappi,Finland,"65°39'11""N, 24°32'35""W",65.652,24.541,Operational,,,€50m,Innopower OY,Innopower OY,Innopower OY,WinWind,,,,,,,,,,,,,,,,,,,,,,,,,,,,,,,,,,,,,,,,,,,,,,,,,,,
120,Kamisu Nearshore Wind Farm,30,15,Ibaraki,Japan,35°52′55″N 140°44′9.6″E,35.908,140.717,Operational,,,,"Wind Power Energy Co., Ltd",Wind Power Group (Komatsuzaki),Wind Power Group (Komatsuzaki); Mitani Corporation,Hitachi; Subaru,,,,,,,,,,,,,,,,,,,,,,,,,,,,,,,,,,,,,,,,,,,,,,,,,,,
121,Arklow Bank ,25,7,"Arklow, Irish Sea",Ireland,52.789°N 5.949°W,52.790,-5.947,Operational,,,€50m,GE Energy; Acciona Energía; SSE Renewables,GE Energy,GE Energy,GE,,,,,,,,,,,,,,,,,,,,,,,,,,,,,,,,,,,,,,,,,,,,,,,,,,,
122,Samsø ,23,10,Samsø ,Denmark,55°43′12″N 10°34′48″E,55.722,10.584,Operational,,2003,€30m,Samsoe Havvind,Samsoe Havvind,Samsø Municipality; Difko A/S,Siemens,,,,,,,,,,,,,,,,,,,,,,,,,,,,,,,,,,,,,,,,,,,,,,,,,,,
123,Sprogø,21,7,Korsør,Denmark,55°20′24″N 10°57′36″E,55.343,10.958,Operational,,2009,,Sund & Baelt Holding A/S,Sund & Baelt Holding A/S,Sund & Baelt Holding A/S,Vestas,,,,,,,,,,,,,,,,,,,,,,,,,,,,,,,,,,,,,,,,,,,,,,,,,,,
124,Eurus Akita Port Wind Farm,18,6,Akita,Japan,39°44′42″N 140°3′3.6″E,39.745,140.051,Operational,,,,Eurus Energy,Eurus Energy,Eurus Energy,Siemens,,,,,,,,,,,,,,,,,,,,,,,,,,,,,,,,,,,,,,,,,,,,,,,,,,,
125,Rønland 1,17.2,8,Thyborøn-Harboøre,Denmark,56°39′46″N 8°13′10″E,56.662,8.220,Operational,,2003,,Vindenergi Aps; Harbøre Møllelaug I/S,Vindenergi Aps; Harbøre Møllelaug I/S,Vindenergi Aps; Harbøre Møllelaug I/S,Vestas; Siemens,,,,,,,,,,,,,,,,,,,,,,,,,,,,,,,,,,,,,,,,,,,,,,,,,,,
126,Irene Vorrink Offshore Wind Farm,16.8,28,Flevoland,Netherlands,52°35′52'' N 5°35′17''E,52.598,5.588,Operational,,1996,£19m,Nuon (Vattenfall),Nuon (Vattenfall),Nuon (Vattenfall),Nordtank,,,,,,,,,,,,,,,,,,,,,,,,,,,,,,,,,,,,,,,,,,,,,,,,,,,
127,Avedøre Holme,10.8,3,Hvidovre,Denmark,55°36′0″N 12°27′30″E,55.602,12.461,Operational,,2009,€25m,DONG Energy,DONG Energy,DONG Energy; Hvidovre Vindmøllelaug A/S,Siemens,,,,,,,,,,,,,,,,,,,,,,,,,,,,,,,,,,,,,,,,,,,,,,,,,,,
128,Utgrunden I,10.5,7,Mörbylånga,Sweden,"56°20′38″N, 16°16′48″E",56.344,16.280,Operational,,2000,€14m,DONG Energy,,Vattenfall,Enron,,,,,,,,,,,,,,,,,,,,,,,,,,,,,,,,,,,,,,,,,,,,,,,,,,,
129,Sakata,10,5,Yamagata,Japan,38°58′1″N 139°49′19″E,38.967,139.822,Operational,,,,Japan Renewable Energy Corporation,Japan Renewable Energy Corporation,Japan Renewable Energy Corporation,Vestas,,,,,,,,,,,,,,,,,,,,,,,,,,,,,,,,,,,,,,,,,,,,,,,,,,,
130,Tunø Knob,5,10,Odder,Denmark,55°58′10″N 10°21′20″E,55.968,10.335,Operational,,1995,€10m,DONG Energy,SE Blue Renewables,SE Blue Renewables,Vestas,,,,,,,,,,,,,,,,,,,,,,,,,,,,,,,,,,,,,,,,,,,,,,,,,,,
131,Vindeby,5,11,Ravnsborg,Denmark,54°58′12″N 11°7′48″E,54.970,11.130,Operational,,1991,€10m,SEAS-NVE Energy Group,DONG Energy,DONG Energy,Bonus,,,,,,,,,,,,,,,,,,,,,,,,,,,,,,,,,,,,,,,,,,,,,,,,,,,
132,Blyth,4,2,"Blyth, Northumberland",UK,55°08′09″N 01°29′25″W,55.136,-1.490,Operational,,2000,£4m,E.ON Climate & Renewables; Shell Renewables; Nuon UK; AMEC Wind,Blyth Offshore Wind Ltd,E.ON Climate & Renewables,Vestas,,,,,,,,,,,,,,,,,,,,,,,,,,,,,,,,,,,,,,,,,,,,,,,,,,,
133,Bockstigen,2.75,5,Gotland,Sweden,57°2′9.6″N 18°8′60″E,57.036,18.150,Operational,,1998,€4m,OM O2,Nordisk Vindkraft,Momentum Gruppen A/S,Wind World,,,,,,,,,,,,,,,,,,,,,,,,,,,,,,,,,,,,,,,,,,,,,,,,,,,
134,Lely,2,4,Noord-Holland,Netherlands,52°47′49″N 5°7′8″E,52.796,5.118,Operational,,1994,£4.4m,Nuon (Vattenfall),Nuon (Vattenfall),Nuon (Vattenfall),Nedwind,,,,,,,,,,,,,,,,,,,,,,,,,,,,,,,,,,,,,,,,,,,,,,,,,,,
,,,,,,,,,,,,,,,,,,,,,,,,,,,,,,,,,,,,,,,,,,,,,,,,,,,,,,,,,,,,,,,,,,,
,,,,,,,,,,,,,,,,,,,,,,,,,,,,,,,,,,,,,,,,,,,,,,,,,,,,,,,,,,,,,,,,,,,
,,,,,,,,,,,,,,,,,,,,,,,,,,,,,,,,,,,,,,,,,,,,,,,,,,,,,,,,,,,,,,,,,,,
,,,,,,,,,,,,,,,,,,,,,,,,,,,,,,,,,,,,,,,,,,,,,,,,,,,,,,,,,,,,,,,,,,,